[{"OBJECT_NAME":"UM5-RIBAT","OBJECT_ID":"2024-149CQ","EPOCH":"2026-03-09T19:05:41.327808","MEAN_MOTION":15.00468196,"ECCENTRICITY":0.00032721,"INCLINATION":97.6776,"RA_OF_ASC_NODE":147.9138,"ARG_OF_PERICENTER":87.0399,"MEAN_ANOMALY":273.1199,"EPHEMERIS_TYPE":0,"CLASSIFICATION_TYPE":"U","NORAD_CAT_ID":60554,"ELEMENT_SET_NO":999,"REV_AT_EPOCH":8528,"BSTAR":0.00037992942,"MEAN_MOTION_DOT":4.725e-5,"MEAN_MOTION_DDOT":0},{"OBJECT_NAME":"STARLINK-36193","OBJECT_ID":"2025-298AA","EPOCH":"2026-03-09T22:00:01.999584","MEAN_MOTION":14.99161072,"ECCENTRICITY":0.00026795,"INCLINATION":70.0009,"RA_OF_ASC_NODE":13.8189,"ARG_OF_PERICENTER":268.8131,"MEAN_ANOMALY":76.3461,"EPHEMERIS_TYPE":0,"CLASSIFICATION_TYPE":"U","NORAD_CAT_ID":67099,"ELEMENT_SET_NO":999,"REV_AT_EPOCH":590,"BSTAR":-0.001795619,"MEAN_MOTION_DOT":-0.00021917,"MEAN_MOTION_DDOT":0}]
